NORAD_CAT_ID,OBJECT_NAME,OBJECT_TYPE,EPOCH,MEAN_MOTION,ECCENTRICITY,INCLINATION,RA_OF_ASC_NODE,ARG_OF_PERICENTER,MEAN_ANOMALY,BSTAR,MEAN_MOTION_DOT,MEAN_MOTION_DDOT,TLE_LINE0,TLE_LINE1,TLE_LINE2,SEMIMAJOR_AXIS,PERIOD,APOGEE,PERIGEE,DECAYED
52297.0,STARLINK-3758,PAYLOAD,2024-05-16 10:03:09,15.08856152,0.0001561,53.2155,192.1713,75.1686,284.9479,0.00012167,1.65e-05,0.0,0 STARLINK-3758,1 52297U 22041AN  24137.41885508  .00001650  00000-0  12167-3 0  9992,2 52297  53.2155 192.1713 0001561  75.1686 284.9479 15.08856152115740,6917.831,95.437,540.776,538.616,0.0
52297.0,STARLINK-3758,PAYLOAD,2024-05-16 13:13:55,15.08866215,0.0001557,53.2154,191.5763,77.8254,282.2913,0.00067765,0.00010521,0.0,0 STARLINK-3758,1 52297U 22041AN  24137.55133158  .00010521  00000-0  67765-3 0  9995,2 52297  53.2154 191.5763 0001557  77.8254 282.2913 15.08866215114544,6917.8,95.436,540.742,538.588,0.0
52297.0,STARLINK-3758,PAYLOAD,2024-05-16 21:10:50,15.08865967,0.0001537,53.2156,190.0884,83.7194,276.3973,0.00093686,0.00014664,0.0,0 STARLINK-3758,1 52297U 22041AN  24137.88252881  .00014664  00000-0  93686-3 0  9999,2 52297  53.2156 190.0884 0001537  83.7194 276.3973 15.08865967114599,6917.801,95.436,540.729,538.603,0.0
52297.0,STARLINK-3758,PAYLOAD,2024-05-17 13:04:44,15.08785956,0.0001139,53.2163,187.1159,101.0064,259.1056,-0.00055936,-9.166e-05,0.0,0 STARLINK-3758,1 52297U 22041AN  24138.54495681 -.00009166  00000-0 -55936-3 0  9999,2 52297  53.2163 187.1159 0001139 101.0064 259.1056 15.08785956115914,6918.046,95.441,540.699,539.123,0.0
52297.0,STARLINK-3758,PAYLOAD,2024-05-18 12:55:30,15.08887377,0.0001386,53.2159,182.6557,84.8952,275.2198,0.0015389,0.0002432,0.0,0 STARLINK-3758,1 52297U 22041AN  24139.53854461  .00024320  00000-0  15389-2 0  9998,2 52297  53.2159 182.6557 0001386  84.8952 275.2198 15.08887377116062,6917.736,95.435,540.559,538.642,0.0
52297.0,STARLINK-3758,PAYLOAD,2024-05-19 03:13:58,15.08875526,0.000151,53.2161,179.9797,84.7147,275.4018,0.0011977,0.00018843,0.0,0 STARLINK-3758,1 52297U 22041AN  24140.13469921  .00018843  00000-0  11977-2 0  9991,2 52297  53.2161 179.9797 0001510  84.7147 275.4018 15.08875526116150,6917.772,95.435,540.681,538.592,0.0
52297.0,STARLINK-3758,PAYLOAD,2024-05-19 08:00:07,15.08836109,0.0001189,53.2153,179.0893,48.8256,311.2839,-0.00065487,-0.00010694,0.0,0 STARLINK-3758,1 52297U 22041AN  24140.33342180 -.00010694  00000-0 -65487-3 0  9994,2 52297  53.2153 179.0893 0001189  48.8256 311.2839 15.08836109114964,6917.892,95.438,540.58,538.935,0.0
52297.0,STARLINK-3758,PAYLOAD,2024-05-20 09:26:17,15.08844409,0.0001298,53.2152,174.3297,110.3715,249.7417,0.00037609,5.703e-05,0.0,0 STARLINK-3758,1 52297U 22041AN  24141.39326145  .00005703  00000-0  37609-3 0  9992,2 52297  53.2152 174.3297 0001298 110.3715 249.7417 15.08844409116348,6917.867,95.437,540.63,538.834,0.0
52297.0,STARLINK-3758,PAYLOAD,2024-05-21 09:17:04,15.08844513,0.0001316,53.2149,169.8666,113.5473,246.5658,0.00019422,2.805e-05,0.0,0 STARLINK-3758,1 52297U 22041AN  24142.38686023  .00002805  00000-0  19422-3 0  9999,2 52297  53.2149 169.8666 0001316 113.5473 246.5658 15.08844513116494,6917.867,95.437,540.642,538.821,0.0
52297.0,STARLINK-3758,PAYLOAD,2024-05-22 09:07:51,15.08846303,0.0001232,53.2149,165.4083,103.3034,256.8096,0.00013842,1.916e-05,0.0,0 STARLINK-3758,1 52297U 22041AN  24143.38045831  .00001916  00000-0  13842-3 0  9998,2 52297  53.2149 165.4083 0001232 103.3034 256.8096 15.08846303115427,6917.861,95.437,540.578,538.874,0.0
52297.0,STARLINK-3758,PAYLOAD,2024-05-23 01:01:43,15.08844712,0.0001246,53.2153,162.4353,96.6606,263.4528,0.00013276,1.826e-05,0.0,0 STARLINK-3758,1 52297U 22041AN  24144.04285883  .00001826  00000-0  13276-3 0  9996,2 52297  53.2153 162.4353 0001246  96.6606 263.4528 15.08844712116745,6917.866,95.437,540.593,538.869,0.0
52297.0,STARLINK-3758,PAYLOAD,2024-05-23 07:23:15,15.08840596,0.0001212,53.2151,161.2444,100.6148,259.498,6.1536e-05,6.92e-06,0.0,0 STARLINK-3758,1 52297U 22041AN  24144.30782072  .00000692  00000-0  61536-4 0  9990,2 52297  53.2151 161.2444 0001212 100.6148 259.4980 15.08840596115563,6917.879,95.438,540.582,538.905,0.0
52297.0,STARLINK-3758,PAYLOAD,2024-05-24 10:24:48,15.08848409,0.0001238,53.2148,156.1891,94.8128,265.3005,0.00016228,2.296e-05,0.0,0 STARLINK-3758,1 52297U 22041AN  24145.43389592  .00002296  00000-0  16228-3 0  9994,2 52297  53.2148 156.1891 0001238  94.8128 265.3005 15.08848409116957,6917.855,95.437,540.576,538.863,0.0
52297.0,STARLINK-3758,PAYLOAD,2024-05-24 18:21:44,15.08849243,0.0001311,53.2156,154.7019,88.5471,271.5672,0.00017849,2.555e-05,0.0,0 STARLINK-3758,1 52297U 22041AN  24145.76509473  .00002555  00000-0  17849-3 0  9990,2 52297  53.2156 154.7019 0001311  88.5471 271.5672 15.08849243115781,6917.852,95.437,540.624,538.81,0.0
52297.0,STARLINK-3758,PAYLOAD,2024-05-25 05:29:26,15.08837963,0.0001612,53.216,152.6188,118.0916,242.0239,4.8134e-05,4.78e-06,0.0,0 STARLINK-3758,1 52297U 22041AN  24146.22877968  .00000478  00000-0  48134-4 0  9993,2 52297  53.2160 152.6188 0001612 118.0916 242.0239 15.08837963117079,6917.887,95.438,540.867,538.636,0.0
52297.0,STARLINK-3758,PAYLOAD,2024-05-25 07:04:50,15.08832107,0.0001347,53.2162,152.328,72.3993,287.7146,0.00010444,1.374e-05,0.0,0 STARLINK-3758,1 52297U 22041AN  24146.29502514  .00001374  00000-0  10444-3 0  9990,2 52297  53.2162 152.3280 0001347  72.3993 287.7146 15.08832107115866,6917.905,95.438,540.701,538.838,0.0
52297.0,STARLINK-3758,PAYLOAD,2024-05-26 03:44:50,15.08844027,0.0001196,53.2164,148.4608,102.7904,257.3222,-2.9408e-05,-7.56e-06,0.0,0 STARLINK-3758,1 52297U 22041AN  24147.15614126 -.00000756  00000-0 -29408-4 0  9995,2 52297  53.2164 148.4608 0001196 102.7904 257.3222 15.08844027117213,6917.868,95.437,540.56,538.906,0.0
52297.0,STARLINK-3758,PAYLOAD,2024-05-26 10:06:22,15.08845536,0.0001226,53.2164,147.2704,110.4713,249.6411,-1.1324e-05,-4.68e-06,0.0,0 STARLINK-3758,1 52297U 22041AN  24147.42109953 -.00000468  00000-0 -11324-4 0  9990,2 52297  53.2164 147.2704 0001226 110.4713 249.6411 15.08845536116034,6917.863,95.437,540.577,538.88,0.0
52297.0,STARLINK-3758,PAYLOAD,2024-05-26 19:38:41,15.08860074,0.0001509,53.2161,145.4862,90.241,269.8755,-0.00024306,-4.156e-05,0.0,0 STARLINK-3758,1 52297U 22041AN  24147.81853434 -.00004156  00000-0 -24306-3 0  9994,2 52297  53.2161 145.4862 0001509  90.2410 269.8755 15.08860074117310,6917.819,95.436,540.728,538.64,0.0
52297.0,STARLINK-3758,PAYLOAD,2024-05-27 05:11:01,15.08829085,0.0001369,53.2174,143.7056,76.2307,283.8837,0.00011014,1.465e-05,0.0,0 STARLINK-3758,1 52297U 22041AN  24148.21598986  .00001465  00000-0  11014-3 0  9997,2 52297  53.2174 143.7056 0001369  76.2307 283.8837 15.08829085117373,6917.914,95.438,540.726,538.832,0.0
52297.0,STARLINK-3758,PAYLOAD,2024-05-27 09:57:10,15.08832945,0.0001421,53.2167,142.8102,80.9934,279.1219,9.2094e-05,1.178e-05,0.0,0 STARLINK-3758,1 52297U 22041AN  24148.41470872  .00001178  00000-0  92094-4 0  9991,2 52297  53.2167 142.8102 0001421  80.9934 279.1219 15.08832945116183,6917.902,95.438,540.75,538.784,0.0
52297.0,STARLINK-3758,PAYLOAD,2024-05-27 16:18:43,15.08833196,0.00013,53.2163,141.6207,83.2625,276.8515,7.4072e-05,8.91e-06,0.0,0 STARLINK-3758,1 52297U 22041AN  24148.67966908  .00000891  00000-0  74072-4 0  9996,2 52297  53.2163 141.6207 0001300  83.2625 276.8515 15.08833196116228,6917.901,95.438,540.666,538.867,0.0
52297.0,STARLINK-3758,PAYLOAD,2024-05-28 05:01:48,15.0883747,0.0001266,53.2163,139.2415,86.2888,273.8249,4.87e-05,4.87e-06,0.0,0 STARLINK-3758,1 52297U 22041AN  24149.20958811  .00000487  00000-0  48700-4 0  9990,2 52297  53.2163 139.2415 0001266  86.2888 273.8249 15.08837470117521,6917.888,95.438,540.629,538.877,0.0
52297.0,STARLINK-3758,PAYLOAD,2024-05-28 06:37:11,15.08837531,0.0001269,53.2163,138.9442,86.1743,273.9394,4.6691e-05,4.55e-06,0.0,0 STARLINK-3758,1 52297U 22041AN  24149.27582813  .00000455  00000-0  46691-4 0  9994,2 52297  53.2163 138.9442 0001269  86.1743 273.9394 15.08837531116315,6917.888,95.438,540.631,538.875,0.0
52297.0,STARLINK-3758,PAYLOAD,2024-05-29 08:03:21,15.08840084,0.0001296,53.2166,134.1862,93.9141,266.1999,0.00010114,1.322e-05,0.0,0 STARLINK-3758,1 52297U 22041AN  24150.33566587  .00001322  00000-0  10114-3 0  9997,2 52297  53.2166 134.1862 0001296  93.9141 266.1999 15.08840084117694,6917.88,95.438,540.642,538.849,0.0
52297.0,STARLINK-3758,PAYLOAD,2024-05-30 07:54:08,15.08845724,0.0001303,53.2165,129.7253,98.2946,261.8194,0.00011663,1.569e-05,0.0,0 STARLINK-3758,1 52297U 22041AN  24151.32926250  .00001569  00000-0  11663-3 0  9997,2 52297  53.2165 129.7253 0001303  98.2946 261.8194 15.08845724116624,6917.863,95.437,540.629,538.826,0.0
52297.0,STARLINK-3758,PAYLOAD,2024-05-31 04:34:08,15.08849993,0.0001756,53.2165,125.8605,70.5191,289.5991,0.00011518,1.546e-05,0.0,0 STARLINK-3758,1 52297U 22041AN  24152.19038040  .00001546  00000-0  11518-3 0  9998,2 52297  53.2165 125.8605 0001756  70.5191 289.5991 15.08849993117972,6917.85,95.437,540.93,538.5,0.0
52297.0,STARLINK-3758,PAYLOAD,2024-05-31 22:03:23,15.08847351,0.0002241,53.2171,122.5889,86.0233,274.1015,0.00010296,1.351e-05,0.0,0 STARLINK-3758,1 52297U 22041AN  24152.91901705  .00001351  00000-0  10296-3 0  9991,2 52297  53.2171 122.5889 0002241  86.0233 274.1015 15.08847351116866,6917.858,95.437,541.273,538.173,0.0
52297.0,STARLINK-3758,PAYLOAD,2024-06-01 04:24:56,15.08832754,0.0001344,53.2177,121.3986,94.6468,265.4678,-6.3987e-05,-1.306e-05,0.0,0 STARLINK-3758,1 52297U 22041AN  24153.18398866 -.00001306  00000-0 -63987-4 0  9997,2 52297  53.2177 121.3986 0001344  94.6468 265.4678 15.08832754118125,6917.903,95.438,540.697,538.838,0.0
52297.0,STARLINK-3758,PAYLOAD,2024-06-02 04:15:43,15.0883607,0.0001061,53.218,116.9384,96.7583,263.353,3.921e-05,3.36e-06,0.0,0 STARLINK-3758,1 52297U 22041AN  24154.17758676  .00000336  00000-0  39210-4 0  9998,2 52297  53.2180 116.9384 0001061  96.7583 263.3530 15.08836070118273,6917.892,95.438,540.491,539.023,0.0
